NORAD_CAT_ID,OBJECT_NAME,OBJECT_TYPE,EPOCH,MEAN_MOTION,ECCENTRICITY,INCLINATION,RA_OF_ASC_NODE,ARG_OF_PERICENTER,MEAN_ANOMALY,BSTAR,MEAN_MOTION_DOT,MEAN_MOTION_DDOT,TLE_LINE0,TLE_LINE1,TLE_LINE2,SEMIMAJOR_AXIS,PERIOD,APOGEE,PERIGEE,DECAYED
53991.0,STARLINK-5118,PAYLOAD,2023-05-20 15:14:39,15.07207407,0.0001096,53.2158,119.2662,84.4351,275.6765,8.3462e-05,9.87e-06,0.0,0 STARLINK-5118,1 53991U 22125AD  23140.63518035  .00000987  00000-0  83462-4 0  9991,2 53991  53.2158 119.2662 0001096  84.4351 275.6765 15.07207407 35101,6922.875,95.541,545.499,543.981,0.0
53991.0,STARLINK-5118,PAYLOAD,2023-05-21 05:34:03,15.07214488,0.0001081,53.2156,116.5937,83.957,276.1545,9.1864e-05,1.116e-05,0.0,0 STARLINK-5118,1 53991U 22125AD  23141.23198118  .00001116  00000-0  91864-4 0  9994,2 53991  53.2156 116.5937 0001081  83.9570 276.1545 15.07214488 35115,6922.853,95.54,545.467,543.97,0.0
53991.0,STARLINK-5118,PAYLOAD,2023-05-22 08:37:23,15.07205176,8.4e-05,53.2146,111.5476,88.3671,271.7417,-6.6099e-06,-3.84e-06,0.0,0 STARLINK-5118,1 53991U 22125AD  23142.35929417 -.00000384  00000-0 -66099-5 0  9993,2 53991  53.2146 111.5476 0000840  88.3671 271.7417 15.07205176 35360,6922.882,95.541,545.328,544.165,0.0
53991.0,STARLINK-5118,PAYLOAD,2023-05-22 14:59:20,15.07199044,0.0001109,53.2158,110.3581,95.582,264.5298,-3.499e-05,-8.16e-06,0.0,0 STARLINK-5118,1 53991U 22125AD  23142.62454757 -.00000816  00000-0 -34990-4 0  9997,2 53991  53.2158 110.3581 0001109  95.5820 264.5298 15.07199044 35400,6922.901,95.541,545.533,543.998,0.0
53991.0,STARLINK-5118,PAYLOAD,2023-05-23 06:54:14,15.07208515,0.0001318,53.2162,107.3885,111.9545,248.1586,-3.4664e-05,-8.11e-06,0.0,0 STARLINK-5118,1 53991U 22125AD  23143.28766204 -.00000811  00000-0 -34664-4 0  9996,2 53991  53.2162 107.3885 0001318 111.9545 248.1586 15.07208515 35500,6922.872,95.541,545.649,543.824,0.0
53991.0,STARLINK-5118,PAYLOAD,2023-05-24 06:46:34,15.0720457,0.0001183,53.2164,102.9338,101.4432,258.6692,0.00013053,1.704e-05,0.0,0 STARLINK-5118,1 53991U 22125AD  23144.28234087  .00001704  00000-0  13053-3 0  9994,2 53991  53.2164 102.9338 0001183 101.4432 258.6692 15.07204570 35573,6922.884,95.541,545.568,543.93,0.0
53991.0,STARLINK-5118,PAYLOAD,2023-05-25 20:58:18,15.07208949,0.0001191,53.2166,95.8067,100.7543,259.3583,3.8542e-05,3.03e-06,0.0,0 STARLINK-5118,1 53991U 22125AD  23145.87382724  .00000303  00000-0  38542-4 0  9997,2 53991  53.2166  95.8067 0001191 100.7543 259.3583 15.07208949 35816,6922.87,95.541,545.56,543.911,0.0
53991.0,STARLINK-5118,PAYLOAD,2023-05-26 03:20:15,15.07211211,0.0001165,53.2166,94.619,99.9811,260.1312,5.215e-05,5.11e-06,0.0,0 STARLINK-5118,1 53991U 22125AD  23146.13907213  .00000511  00000-0  52150-4 0  9995,2 53991  53.2166  94.6190 0001165  99.9811 260.1312 15.07211211 35937,6922.863,95.541,545.535,543.922,0.0
53991.0,STARLINK-5118,PAYLOAD,2023-05-26 20:50:39,15.07204052,0.0001133,53.217,91.3562,98.0342,262.0778,-1.0089e-05,-4.37e-06,0.0,0 STARLINK-5118,1 53991U 22125AD  23146.86850971 -.00000437  00000-0 -10089-4 0  9997,2 53991  53.2170  91.3562 0001133  98.0342 262.0778 15.07204052 35968,6922.885,95.541,545.535,543.966,0.0
53991.0,STARLINK-5118,PAYLOAD,2023-05-27 01:37:07,15.07202459,0.0001098,53.2172,90.4651,93.1297,266.982,-7.7064e-06,-4.01e-06,0.0,0 STARLINK-5118,1 53991U 22125AD  23147.06744635 -.00000401  00000-0 -77064-5 0  9997,2 53991  53.2172  90.4651 0001098  93.1297 266.9820 15.07202459 36077,6922.89,95.541,545.515,543.995,0.0
53991.0,STARLINK-5118,PAYLOAD,2023-05-27 12:45:32,15.07204751,0.0001113,53.2173,88.3867,97.897,262.2147,-3.7491e-05,-8.54e-06,0.0,0 STARLINK-5118,1 53991U 22125AD  23147.53162940 -.00000854  00000-0 -37491-4 0  9993,2 53991  53.2173  88.3867 0001113  97.8970 262.2147 15.07204751 36067,6922.883,95.541,545.519,543.978,0.0
53991.0,STARLINK-5118,PAYLOAD,2023-05-28 03:04:57,15.07201075,0.0001254,53.2179,85.7149,108.5384,251.5744,-2.0292e-05,-5.92e-06,0.0,0 STARLINK-5118,1 53991U 22125AD  23148.12843974 -.00000592  00000-0 -20292-4 0  9992,2 53991  53.2179  85.7149 0001254 108.5384 251.5744 15.07201075 36231,6922.894,95.541,545.628,543.891,0.0
53991.0,STARLINK-5118,PAYLOAD,2023-05-29 02:57:16,15.07206847,0.0001195,53.2179,81.2606,106.449,253.6633,9.4672e-05,1.158e-05,0.0,0 STARLINK-5118,1 53991U 22125AD  23149.12311269  .00001158  00000-0  94672-4 0  9990,2 53991  53.2179  81.2606 0001195 106.4490 253.6633 15.07206847 36387,6922.877,95.541,545.569,543.915,0.0
53991.0,STARLINK-5118,PAYLOAD,2023-05-29 04:32:46,15.07208437,0.0001233,53.2181,80.9638,108.273,251.8395,0.0001081,1.363e-05,0.0,0 STARLINK-5118,1 53991U 22125AD  23149.18942306  .00001363  00000-0  10810-3 0  9997,2 53991  53.2181  80.9638 0001233 108.2730 251.8395 15.07208437 36316,6922.872,95.541,545.591,543.883,0.0
53991.0,STARLINK-5118,PAYLOAD,2023-05-30 01:14:08,15.07197989,0.0001241,53.2183,77.1007,96.6714,263.4419,4.198e-05,3.56e-06,0.0,0 STARLINK-5118,1 53991U 22125AD  23150.05148785  .00000356  00000-0  41980-4 0  9998,2 53991  53.2183  77.1007 0001241  96.6714 263.4419 15.07197989 36525,6922.904,95.542,545.628,543.91,0.0
53991.0,STARLINK-5118,PAYLOAD,2023-05-30 04:25:07,15.07203408,0.0001138,53.2178,76.5059,90.9175,269.1947,-4.2009e-06,-3.47e-06,0.0,0 STARLINK-5118,1 53991U 22125AD  23150.18411006 -.00000347  00000-0 -42009-5 0  9997,2 53991  53.2178  76.5059 0001138  90.9175 269.1947 15.07203408 36468,6922.887,95.541,545.54,543.964,0.0
53991.0,STARLINK-5118,PAYLOAD,2023-05-31 01:06:28,15.07206326,0.0001114,53.2176,72.6463,88.9604,271.1515,-1.8169e-05,-5.6e-06,0.0,0 STARLINK-5118,1 53991U 22125AD  23151.04616393 -.00000560  00000-0 -18169-4 0  9995,2 53991  53.2176  72.6463 0001114  88.9604 271.1515 15.07206326 36679,6922.878,95.541,545.515,543.972,0.0
53991.0,STARLINK-5118,PAYLOAD,2023-05-31 04:17:26,15.07211098,0.0001106,53.2173,72.0508,95.6712,264.4405,1.5405e-05,-4.9e-07,0.0,0 STARLINK-5118,1 53991U 22125AD  23151.17878327 -.00000049  00000-0  15405-4 0  9997,2 53991  53.2173  72.0508 0001106  95.6712 264.4405 15.07211098 36615,6922.864,95.541,545.494,543.963,0.0
53991.0,STARLINK-5118,PAYLOAD,2023-05-31 21:47:49,15.07208493,0.0001133,53.2172,68.785,93.4449,266.6672,8.552e-05,1.019e-05,0.0,0 STARLINK-5118,1 53991U 22125AD  23151.90821198  .00001019  00000-0  85520-4 0  9994,2 53991  53.2172  68.7850 0001133  93.4449 266.6672 15.07208493 36726,6922.872,95.541,545.521,543.952,0.0
53991.0,STARLINK-5118,PAYLOAD,2023-06-01 04:09:46,15.0721478,0.0001178,53.2176,67.5971,95.8555,264.2571,0.00013983,1.846e-05,0.0,0 STARLINK-5118,1 53991U 22125AD  23152.17345320  .00001846  00000-0  13983-3 0  9993,2 53991  53.2176  67.5971 0001178  95.8555 264.2571 15.07214780 36766,6922.852,95.54,545.533,543.902,0.0
53991.0,STARLINK-5118,PAYLOAD,2023-06-01 21:40:10,15.07205069,0.0001285,53.2176,64.3278,96.6559,263.4578,1.263e-05,-9.1e-07,0.0,0 STARLINK-5118,1 53991U 22125AD  23152.90289387 -.00000091  00000-0  12630-4 0  9995,2 53991  53.2176  64.3278 0001285  96.6559 263.4578 15.07205069 36873,6922.882,95.541,545.637,543.858,0.0
53991.0,STARLINK-5118,PAYLOAD,2023-06-02 00:51:08,15.07208464,0.0001173,53.2178,63.7371,83.5464,276.5661,1.9135e-05,8e-08,0.0,0 STARLINK-5118,1 53991U 22125AD  23153.03551594  .00000008  00000-0  19135-4 0  9996,2 53991  53.2178  63.7371 0001173  83.5464 276.5661 15.07208464 36979,6922.872,95.541,545.549,543.925,0.0
53991.0,STARLINK-5118,PAYLOAD,2023-06-02 21:32:30,15.07203292,0.0001173,53.2172,59.8797,80.1385,279.9738,-0.00010543,-1.888e-05,0.0,0 STARLINK-5118,1 53991U 22125AD  23153.89757959 -.00001888  00000-0 -10543-3 0  9995,2 53991  53.2172  59.8797 0001173  80.1385 279.9738 15.07203292 37029,6922.888,95.541,545.565,543.941,0.0
53991.0,STARLINK-5118,PAYLOAD,2023-06-03 00:43:29,15.07212885,0.0001099,53.2166,59.2854,83.8238,276.2878,-0.00016681,-2.822e-05,0.0,0 STARLINK-5118,1 53991U 22125AD  23154.03019929 -.00002822  00000-0 -16681-3 0  9998,2 53991  53.2166  59.2854 0001099  83.8238 276.2878 15.07212885 37049,6922.858,95.541,545.484,543.962,0.0
53991.0,STARLINK-5118,PAYLOAD,2023-06-03 21:24:51,15.07202776,0.0001178,53.2177,55.4287,91.8831,268.2295,-5.0558e-07,-2.91e-06,0.0,0 STARLINK-5118,1 53991U 22125AD  23154.89225784 -.00000291  00000-0 -50558-6 0  9992,2 53991  53.2177  55.4287 0001178  91.8831 268.2295 15.07202776 37171,6922.889,95.541,545.57,543.939,0.0
53991.0,STARLINK-5118,PAYLOAD,2023-06-03 23:00:20,15.07201899,0.0001145,53.2167,55.128,74.8719,285.2398,1.4242e-06,-2.62e-06,0.0,0 STARLINK-5118,1 53991U 22125AD  23154.95857052 -.00000262  00000-0  14242-5 0  9994,2 53991  53.2167  55.1280 0001145  74.8719 285.2398 15.07201899 37268,6922.892,95.541,545.55,543.964,0.0
53991.0,STARLINK-5118,PAYLOAD,2023-06-04 03:46:48,15.07201982,0.0001132,53.2162,54.2358,80.8896,279.2224,9.1458e-05,1.109e-05,0.0,0 STARLINK-5118,1 53991U 22125AD  23155.15750368  .00001109  00000-0  91458-4 0  9992,2 53991  53.2162  54.2358 0001132  80.8896 279.2224 15.07201982 37217,6922.892,95.541,545.54,543.973,0.0
53991.0,STARLINK-5118,PAYLOAD,2023-06-04 21:17:11,15.0720327,0.000111,53.216,50.9694,73.5047,286.6066,5.394e-05,5.38e-06,0.0,0 STARLINK-5118,1 53991U 22125AD  23155.88693664  .00000538  00000-0  53940-4 0  9996,2 53991  53.2160  50.9694 0001110  73.5047 286.6066 15.07203270 37324,6922.888,95.541,545.521,543.984,0.0
53991.0,STARLINK-5118,PAYLOAD,2023-06-05 02:03:38,15.0720889,0.0001311,53.2177,50.0775,86.5417,273.5725,0.00010509,1.317e-05,0.0,0 STARLINK-5118,1 53991U 22125AD  23156.08586760  .00001317  00000-0  10509-3 0  9996,2 53991  53.2177  50.0775 0001311  86.5417 273.5725 15.07208890 37433,6922.871,95.541,545.643,543.828,0.0
53991.0,STARLINK-5118,PAYLOAD,2023-06-05 11:36:35,15.07202407,0.0001542,53.2178,48.3002,103.5483,256.568,5.896e-05,6.14e-06,0.0,0 STARLINK-5118,1 53991U 22125AD  23156.48374422  .00000614  00000-0  58960-4 0  9993,2 53991  53.2178  48.3002 0001542 103.5483 256.5680 15.07202407 37413,6922.89,95.541,545.823,543.688,0.0
